CCSDS_OMM_VERS = 2.0
CREATION_DATE  = 
ORIGINATOR     = 

OBJECT_NAME    = UNKNOWN
OBJECT_ID      = 
CENTER_NAME    = EARTH
REF_FRAME      = TEME
TIME_SYSTEM    = UTC
MEAN_ELEMENT_THEORY = SGP/SGP4

EPOCH          = 2026-03-30T21:27:51.367392
MEAN_MOTION    = 14.40969009
ECCENTRICITY   = .0003573
INCLINATION    = 71.0005
RA_OF_ASC_NODE = 150.6713
ARG_OF_PERICENTER = 12.1833
MEAN_ANOMALY   = 347.9389

EPHEMERIS_TYPE = 0
CLASSIFICATION_TYPE = U
NORAD_CAT_ID   = 81745
ELEMENT_SET_NO = 999
REV_AT_EPOCH   = 64532
BSTAR          = .87773E-3
MEAN_MOTION_DOT = .2772E-4
MEAN_MOTION_DDOT = 0

CCSDS_OMM_VERS = 2.0
CREATION_DATE  = 
ORIGINATOR     = 

OBJECT_NAME    = UNKNOWN
OBJECT_ID      = 
CENTER_NAME    = EARTH
REF_FRAME      = TEME
TIME_SYSTEM    = UTC
MEAN_ELEMENT_THEORY = SGP/SGP4

EPOCH          = 2026-03-31T00:27:00.420768
MEAN_MOTION    = 12.77645384
ECCENTRICITY   = .0368013
INCLINATION    = 99.6661
RA_OF_ASC_NODE = 109.3628
ARG_OF_PERICENTER = 333.6726
MEAN_ANOMALY   = 54.0220

EPHEMERIS_TYPE = 0
CLASSIFICATION_TYPE = U
NORAD_CAT_ID   = 81749
ELEMENT_SET_NO = 999
REV_AT_EPOCH   = 57583
BSTAR          = .64066E-3
MEAN_MOTION_DOT = .15E-5
MEAN_MOTION_DDOT = 0

CCSDS_OMM_VERS = 2.0
CREATION_DATE  = 
ORIGINATOR     = 

OBJECT_NAME    = UNKNOWN
OBJECT_ID      = 
CENTER_NAME    = EARTH
REF_FRAME      = TEME
TIME_SYSTEM    = UTC
MEAN_ELEMENT_THEORY = SGP/SGP4

EPOCH          = 2026-03-28T13:49:28.477056
MEAN_MOTION    = 14.42447732
ECCENTRICITY   = .0013463
INCLINATION    = 82.9199
RA_OF_ASC_NODE = 136.4693
ARG_OF_PERICENTER = 268.4099
MEAN_ANOMALY   = 91.5553

EPHEMERIS_TYPE = 0
CLASSIFICATION_TYPE = U
NORAD_CAT_ID   = 81775
ELEMENT_SET_NO = 999
REV_AT_EPOCH   = 64052
BSTAR          = .1642E-2
MEAN_MOTION_DOT = .5458E-4
MEAN_MOTION_DDOT = 0

CCSDS_OMM_VERS = 2.0
CREATION_DATE  = 
ORIGINATOR     = 

OBJECT_NAME    = UNKNOWN
OBJECT_ID      = 
CENTER_NAME    = EARTH
REF_FRAME      = TEME
TIME_SYSTEM    = UTC
MEAN_ELEMENT_THEORY = SGP/SGP4

EPOCH          = 2026-03-31T05:38:01.421952
MEAN_MOTION    = 9.33738485
ECCENTRICITY   = .1437944
INCLINATION    = 54.4659
RA_OF_ASC_NODE = 47.8805
ARG_OF_PERICENTER = 146.6726
MEAN_ANOMALY   = 223.3487

EPHEMERIS_TYPE = 0
CLASSIFICATION_TYPE = U
NORAD_CAT_ID   = 81779
ELEMENT_SET_NO = 999
REV_AT_EPOCH   = 49045
BSTAR          = .14748E+0
MEAN_MOTION_DOT = .2122E-4
MEAN_MOTION_DDOT = 0

CCSDS_OMM_VERS = 2.0
CREATION_DATE  = 
ORIGINATOR     = 

OBJECT_NAME    = UNKNOWN
OBJECT_ID      = 
CENTER_NAME    = EARTH
REF_FRAME      = TEME
TIME_SYSTEM    = UTC
MEAN_ELEMENT_THEORY = SGP/SGP4

EPOCH          = 2026-03-31T00:59:20.079168
MEAN_MOTION    = 13.11426652
ECCENTRICITY   = .089491
INCLINATION    = 65.8322
RA_OF_ASC_NODE = 212.4112
ARG_OF_PERICENTER = 234.6438
MEAN_ANOMALY   = 116.7764

EPHEMERIS_TYPE = 0
CLASSIFICATION_TYPE = U
NORAD_CAT_ID   = 81792
ELEMENT_SET_NO = 999
REV_AT_EPOCH   = 9423
BSTAR          = .10423E-2
MEAN_MOTION_DOT = .2946E-4
MEAN_MOTION_DDOT = 0

CCSDS_OMM_VERS = 2.0
CREATION_DATE  = 
ORIGINATOR     = 

OBJECT_NAME    = UNKNOWN
OBJECT_ID      = 
CENTER_NAME    = EARTH
REF_FRAME      = TEME
TIME_SYSTEM    = UTC
MEAN_ELEMENT_THEORY = SGP/SGP4

EPOCH          = 2026-03-31T12:17:36.108672
MEAN_MOTION    = 12.38568927
ECCENTRICITY   = .0323678
INCLINATION    = 103.7981
RA_OF_ASC_NODE = 21.1695
ARG_OF_PERICENTER = 47.5922
MEAN_ANOMALY   = 315.2045

EPHEMERIS_TYPE = 0
CLASSIFICATION_TYPE = U
NORAD_CAT_ID   = 81812
ELEMENT_SET_NO = 999
REV_AT_EPOCH   = 55402
BSTAR          = .48674E-1
MEAN_MOTION_DOT = .7599E-4
MEAN_MOTION_DDOT = 0

CCSDS_OMM_VERS = 2.0
CREATION_DATE  = 
ORIGINATOR     = 

OBJECT_NAME    = UNKNOWN
OBJECT_ID      = 
CENTER_NAME    = EARTH
REF_FRAME      = TEME
TIME_SYSTEM    = UTC
MEAN_ELEMENT_THEORY = SGP/SGP4

EPOCH          = 2026-03-31T04:44:09.279168
MEAN_MOTION    = 13.89799739
ECCENTRICITY   = .01691
INCLINATION    = 66.2387
RA_OF_ASC_NODE = 25.6510
ARG_OF_PERICENTER = 185.8089
MEAN_ANOMALY   = 174.1028

EPHEMERIS_TYPE = 0
CLASSIFICATION_TYPE = U
NORAD_CAT_ID   = 81816
ELEMENT_SET_NO = 999
REV_AT_EPOCH   = 62441
BSTAR          = .12492E-2
MEAN_MOTION_DOT = .1643E-4
MEAN_MOTION_DDOT = 0

CCSDS_OMM_VERS = 2.0
CREATION_DATE  = 
ORIGINATOR     = 

OBJECT_NAME    = UNKNOWN
OBJECT_ID      = 
CENTER_NAME    = EARTH
REF_FRAME      = TEME
TIME_SYSTEM    = UTC
MEAN_ELEMENT_THEORY = SGP/SGP4

EPOCH          = 2026-03-27T05:01:23.453472
MEAN_MOTION    = 12.47882335
ECCENTRICITY   = .003422
INCLINATION    = 102.1698
RA_OF_ASC_NODE = 189.8394
ARG_OF_PERICENTER = 271.6508
MEAN_ANOMALY   = 88.0639

EPHEMERIS_TYPE = 0
CLASSIFICATION_TYPE = U
NORAD_CAT_ID   = 81819
ELEMENT_SET_NO = 999
REV_AT_EPOCH   = 56104
BSTAR          = .55094E-2
MEAN_MOTION_DOT = .77E-5
MEAN_MOTION_DDOT = 0

CCSDS_OMM_VERS = 2.0
CREATION_DATE  = 
ORIGINATOR     = 

OBJECT_NAME    = UNKNOWN
OBJECT_ID      = 
CENTER_NAME    = EARTH
REF_FRAME      = TEME
TIME_SYSTEM    = UTC
MEAN_ELEMENT_THEORY = SGP/SGP4

EPOCH          = 2026-03-31T06:23:00.585600
MEAN_MOTION    = 14.36707498
ECCENTRICITY   = .0049218
INCLINATION    = 65.8437
RA_OF_ASC_NODE = 40.6724
ARG_OF_PERICENTER = 282.7352
MEAN_ANOMALY   = 76.8244

EPHEMERIS_TYPE = 0
CLASSIFICATION_TYPE = U
NORAD_CAT_ID   = 81824
ELEMENT_SET_NO = 999
REV_AT_EPOCH   = 64017
BSTAR          = .23098E-2
MEAN_MOTION_DOT = .6828E-4
MEAN_MOTION_DDOT = 0

CCSDS_OMM_VERS = 2.0
CREATION_DATE  = 
ORIGINATOR     = 

OBJECT_NAME    = UNKNOWN
OBJECT_ID      = 
CENTER_NAME    = EARTH
REF_FRAME      = TEME
TIME_SYSTEM    = UTC
MEAN_ELEMENT_THEORY = SGP/SGP4

EPOCH          = 2026-03-31T00:07:08.399712
MEAN_MOTION    = 12.93780027
ECCENTRICITY   = .0028252
INCLINATION    = 90.2483
RA_OF_ASC_NODE = 5.3018
ARG_OF_PERICENTER = 97.0860
MEAN_ANOMALY   = 263.3472

EPHEMERIS_TYPE = 0
CLASSIFICATION_TYPE = U
NORAD_CAT_ID   = 81833
ELEMENT_SET_NO = 999
REV_AT_EPOCH   = 46651
BSTAR          = .1482E-2
MEAN_MOTION_DOT = .416E-5
MEAN_MOTION_DDOT = 0

CCSDS_OMM_VERS = 2.0
CREATION_DATE  = 
ORIGINATOR     = 

OBJECT_NAME    = UNKNOWN
OBJECT_ID      = 
CENTER_NAME    = EARTH
REF_FRAME      = TEME
TIME_SYSTEM    = UTC
MEAN_ELEMENT_THEORY = SGP/SGP4

EPOCH          = 2026-03-28T03:30:21.316320
MEAN_MOTION    = 14.58536848
ECCENTRICITY   = .0043897
INCLINATION    = 67.7618
RA_OF_ASC_NODE = 350.4023
ARG_OF_PERICENTER = 270.3613
MEAN_ANOMALY   = 238.5300

EPHEMERIS_TYPE = 0
CLASSIFICATION_TYPE = U
NORAD_CAT_ID   = 81838
ELEMENT_SET_NO = 999
REV_AT_EPOCH   = 64869
BSTAR          = .10424E-2
MEAN_MOTION_DOT = .4831E-4
MEAN_MOTION_DDOT = 0

CCSDS_OMM_VERS = 2.0
CREATION_DATE  = 
ORIGINATOR     = 

OBJECT_NAME    = UNKNOWN
OBJECT_ID      = 
CENTER_NAME    = EARTH
REF_FRAME      = TEME
TIME_SYSTEM    = UTC
MEAN_ELEMENT_THEORY = SGP/SGP4

EPOCH          = 2026-03-31T14:03:27.320832
MEAN_MOTION    = 14.34308278
ECCENTRICITY   = .0062029
INCLINATION    = 82.9132
RA_OF_ASC_NODE = 193.2697
ARG_OF_PERICENTER = 177.6317
MEAN_ANOMALY   = 182.5179

EPHEMERIS_TYPE = 0
CLASSIFICATION_TYPE = U
NORAD_CAT_ID   = 81844
ELEMENT_SET_NO = 999
REV_AT_EPOCH   = 63848
BSTAR          = .354E-2
MEAN_MOTION_DOT = .10183E-3
MEAN_MOTION_DDOT = 0

