UNKNOWN                 
1 81745U          26089.89434453  .00002772  00000+0  87773-3 0  9992
2 81745  71.0005 150.6713 0003573  12.1833 347.9389 14.40969009645324
UNKNOWN                 
1 81749U          26090.01875487  .00000150  00000+0  64066-3 0  9996
2 81749  99.6661 109.3628 0368013 333.6726  54.0220 12.77645384575836
UNKNOWN                 
1 81775U          26087.57602404  .00005458  00000+0  16420-2 0  9995
2 81775  82.9199 136.4693 0013463 268.4099  91.5553 14.42447732640528
UNKNOWN                 
1 81779U          26090.23473868  .00002122  00000+0  14748+0 0  9999
2 81779  54.4659  47.8805 1437944 146.6726 223.3487  9.33738485490454
UNKNOWN                 
1 81792U          26090.04120462  .00002946  00000+0  10423-2 0  9995
2 81792  65.8322 212.4112 0894910 234.6438 116.7764 13.11426652 94230
UNKNOWN                 
1 81812U          26090.51222348  .00007599  00000+0  48674-1 0  9993
2 81812 103.7981  21.1695 0323678  47.5922 315.2045 12.38568927554020
UNKNOWN                 
1 81816U          26090.19732962  .00001643  00000+0  12492-2 0  9993
2 81816  66.2387  25.6510 0169100 185.8089 174.1028 13.89799739624418
UNKNOWN                 
1 81819U          26086.20929923  .00000770  00000+0  55094-2 0  9993
2 81819 102.1698 189.8394 0034220 271.6508  88.0639 12.47882335561041
UNKNOWN                 
1 81824U          26090.26597900  .00006828  00000+0  23098-2 0  9995
2 81824  65.8437  40.6724 0049218 282.7352  76.8244 14.36707498640172
UNKNOWN                 
1 81833U          26090.00495833  .00000416  00000+0  14820-2 0  9999
2 81833  90.2483   5.3018 0028252  97.0860 263.3472 12.93780027466515
UNKNOWN                 
1 81838U          26087.14608005  .00004831  00000+0  10424-2 0  9993
2 81838  67.7618 350.4023 0043897 270.3613 238.5300 14.58536848648691
UNKNOWN                 
1 81844U          26090.58573288  .00010183  00000+0  35400-2 0  9994
2 81844  82.9132 193.2697 0062029 177.6317 182.5179 14.34308278638482
